FLYING LAPTOP           
1 42831U 17042G   26115.91973495  .00002783  00000+0  22296-3 0  9997
2 42831  97.4455 273.5510 0018221 303.8617  56.0873 15.00808440478614
WNISAT 1R               
1 42835U 17042L   26115.38287696  .00003204  00000+0  25189-3 0  9996
2 42835  97.4737 273.4223 0012200 345.6903  14.3974 15.01496854478582
LEMUR-2-GREENBERG       
1 42837U 17042N   26115.45497587  .00018899  00000+0  65883-3 0  9999
2 42837  97.3813 296.3955 0009310 183.6720 176.4454 15.29643379480323
LEMUR-2-FURIAUS         
1 42840U 17042R   26115.47499809  .00023655  00000+0  85571-3 0  9996
2 42840  97.3767 294.4935 0006806 241.8843 118.1709 15.28405316480155
CORVUS BC2              
1 42846U 17042X   26115.90836512  .00003793  00000+0  26422-3 0  9997
2 42846  97.4022 279.3192 0011422 293.7720  66.2309 15.05959920479194
CORVUS BC1              
1 42847U 17042Y   26115.70957630  .00002630  00000+0  18371-3 0  9994
2 42847  97.4056 279.9077 0010181 267.3105  92.6957 15.06127520479191
VRSS-2                  
1 42954U 17060A   26115.96581847  .00000415  00000+0  59800-4 0  9996
2 42954  97.6567 156.0348 0015487 271.5360  88.4079 14.81107348460724
MOHAMMED VI-A           
1 43005U 17070A   26114.69474984  .00000725  00000+0  10992-3 0  9999
2 43005  97.9570 187.7560 0001115  95.7336 264.4001 14.77085785456088
FENGYUN 3D              
1 43010U 17072A   26115.92532301 -.00000073  00000+0 -12530-4 0  9991
2 43010  99.0096  89.4142 0001366 155.2438 204.8803 14.19727155437578
CZ-4C R/B               
1 43012U 17072C   26115.84229732  .00000271  00000+0  63731-4 0  9992
2 43012  98.5735 222.1422 0121593 313.5371  45.5776 14.58736401449008
NOAA 20 (JPSS-1)        
1 43013U 17073A   26115.84180819  .00000067  00000+0  52739-4 0  9995
2 43013  98.7744  55.7767 0002107  73.3563 286.7844 14.19547502437041
MAKERSAT 0              
1 43016U 17073D   26115.63071853  .00022036  00000+0  62656-3 0  9990
2 43016  97.4705 357.8114 0114178  99.6465 261.7695 15.29789926458425
RADFXSAT (FOX-1B)       
1 43017U 17073E   26115.60339125  .00008540  00000+0  37834-3 0  9991
2 43017  97.4781 343.9160 0154066 149.5770 211.4514 15.11739469457442
JILIN-1 04              
1 43022U 17074A   26115.90407659  .00015442  00000+0  37498-3 0  9994
2 43022  97.4798 224.1954 0004413  42.8670 317.2920 15.41099071466213
JILIN-1 05              
1 43023U 17074B   26115.91781402  .00007318  00000+0  23141-3 0  9990
2 43023  97.4809 221.4147 0006488  64.2698 295.9213 15.33075067465994
JILIN-1 06              
1 43024U 17074C   26115.88721047  .00007927  00000+0  25016-3 0  9995
2 43024  97.4738 218.4489 0008388  71.6855 288.5299 15.33099092465827
