[{"OBJECT_NAME":"FLYING LAPTOP","OBJECT_ID":"2017-042G","EPOCH":"2026-04-25T22:04:25.099680","MEAN_MOTION":15.0080844,"ECCENTRICITY":0.00182215,"INCLINATION":97.4455,"RA_OF_ASC_NODE":273.551,"ARG_OF_PERICENTER":303.8617,"MEAN_ANOMALY":56.0873,"EPHEMERIS_TYPE":0,"CLASSIFICATION_TYPE":"U","NORAD_CAT_ID":42831,"ELEMENT_SET_NO":999,"REV_AT_EPOCH":47861,"BSTAR":0.000222956,"MEAN_MOTION_DOT":2.783e-5,"MEAN_MOTION_DDOT":0},{"OBJECT_NAME":"WNISAT 1R","OBJECT_ID":"2017-042L","EPOCH":"2026-04-25T09:11:20.569344","MEAN_MOTION":15.01496854,"ECCENTRICITY":0.00122004,"INCLINATION":97.4737,"RA_OF_ASC_NODE":273.4223,"ARG_OF_PERICENTER":345.6903,"MEAN_ANOMALY":14.3974,"EPHEMERIS_TYPE":0,"CLASSIFICATION_TYPE":"U","NORAD_CAT_ID":42835,"ELEMENT_SET_NO":999,"REV_AT_EPOCH":47858,"BSTAR":0.00025188688,"MEAN_MOTION_DOT":3.204e-5,"MEAN_MOTION_DDOT":0},{"OBJECT_NAME":"LEMUR-2-GREENBERG","OBJECT_ID":"2017-042N","EPOCH":"2026-04-25T10:55:09.915168","MEAN_MOTION":15.29643379,"ECCENTRICITY":0.00093104,"INCLINATION":97.3813,"RA_OF_ASC_NODE":296.3955,"ARG_OF_PERICENTER":183.672,"MEAN_ANOMALY":176.4454,"EPHEMERIS_TYPE":0,"CLASSIFICATION_TYPE":"U","NORAD_CAT_ID":42837,"ELEMENT_SET_NO":999,"REV_AT_EPOCH":48032,"BSTAR":0.0006588307,"MEAN_MOTION_DOT":0.00018899,"MEAN_MOTION_DDOT":0},{"OBJECT_NAME":"LEMUR-2-FURIAUS","OBJECT_ID":"2017-042R","EPOCH":"2026-04-25T11:23:59.834976","MEAN_MOTION":15.28405316,"ECCENTRICITY":0.00068063,"INCLINATION":97.3767,"RA_OF_ASC_NODE":294.4935,"ARG_OF_PERICENTER":241.8843,"MEAN_ANOMALY":118.1709,"EPHEMERIS_TYPE":0,"CLASSIFICATION_TYPE":"U","NORAD_CAT_ID":42840,"ELEMENT_SET_NO":999,"REV_AT_EPOCH":48015,"BSTAR":0.00085570955,"MEAN_MOTION_DOT":0.00023655,"MEAN_MOTION_DDOT":0},{"OBJECT_NAME":"CORVUS BC2","OBJECT_ID":"2017-042X","EPOCH":"2026-04-25T21:48:02.746368","MEAN_MOTION":15.0595992,"ECCENTRICITY":0.00114223,"INCLINATION":97.4022,"RA_OF_ASC_NODE":279.3192,"ARG_OF_PERICENTER":293.772,"MEAN_ANOMALY":66.2309,"EPHEMERIS_TYPE":0,"CLASSIFICATION_TYPE":"U","NORAD_CAT_ID":42846,"ELEMENT_SET_NO":999,"REV_AT_EPOCH":47919,"BSTAR":0.00026422376,"MEAN_MOTION_DOT":3.793e-5,"MEAN_MOTION_DDOT":0},{"OBJECT_NAME":"CORVUS BC1","OBJECT_ID":"2017-042Y","EPOCH":"2026-04-25T17:01:47.392320","MEAN_MOTION":15.0612752,"ECCENTRICITY":0.00101817,"INCLINATION":97.4056,"RA_OF_ASC_NODE":279.9077,"ARG_OF_PERICENTER":267.3105,"MEAN_ANOMALY":92.6957,"EPHEMERIS_TYPE":0,"CLASSIFICATION_TYPE":"U","NORAD_CAT_ID":42847,"ELEMENT_SET_NO":999,"REV_AT_EPOCH":47919,"BSTAR":0.000183711,"MEAN_MOTION_DOT":2.63e-5,"MEAN_MOTION_DDOT":0},{"OBJECT_NAME":"VRSS-2","OBJECT_ID":"2017-060A","EPOCH":"2026-04-25T23:10:46.715808","MEAN_MOTION":14.81107348,"ECCENTRICITY":0.00154872,"INCLINATION":97.6567,"RA_OF_ASC_NODE":156.0348,"ARG_OF_PERICENTER":271.536,"MEAN_ANOMALY":88.4079,"EPHEMERIS_TYPE":0,"CLASSIFICATION_TYPE":"U","NORAD_CAT_ID":42954,"ELEMENT_SET_NO":999,"REV_AT_EPOCH":46072,"BSTAR":5.9800096e-5,"MEAN_MOTION_DOT":4.15e-6,"MEAN_MOTION_DDOT":0},{"OBJECT_NAME":"MOHAMMED VI-A","OBJECT_ID":"2017-070A","EPOCH":"2026-04-24T16:40:26.386176","MEAN_MOTION":14.77085785,"ECCENTRICITY":0.00011155,"INCLINATION":97.957,"RA_OF_ASC_NODE":187.756,"ARG_OF_PERICENTER":95.7336,"MEAN_ANOMALY":264.4001,"EPHEMERIS_TYPE":0,"CLASSIFICATION_TYPE":"U","NORAD_CAT_ID":43005,"ELEMENT_SET_NO":999,"REV_AT_EPOCH":45608,"BSTAR":0.00010992299,"MEAN_MOTION_DOT":7.25e-6,"MEAN_MOTION_DDOT":0},{"OBJECT_NAME":"FENGYUN 3D","OBJECT_ID":"2017-072A","EPOCH":"2026-04-25T22:12:27.908064","MEAN_MOTION":14.19727155,"ECCENTRICITY":0.00013667,"INCLINATION":99.0096,"RA_OF_ASC_NODE":89.4142,"ARG_OF_PERICENTER":155.2438,"MEAN_ANOMALY":204.8803,"EPHEMERIS_TYPE":0,"CLASSIFICATION_TYPE":"U","NORAD_CAT_ID":43010,"ELEMENT_SET_NO":999,"REV_AT_EPOCH":43757,"BSTAR":-1.2530354e-5,"MEAN_MOTION_DOT":-7.3e-7,"MEAN_MOTION_DDOT":0},{"OBJECT_NAME":"CZ-4C R/B","OBJECT_ID":"2017-072C","EPOCH":"2026-04-25T20:12:54.488448","MEAN_MOTION":14.58736401,"ECCENTRICITY":0.01215933,"INCLINATION":98.5735,"RA_OF_ASC_NODE":222.1422,"ARG_OF_PERICENTER":313.5371,"MEAN_ANOMALY":45.5776,"EPHEMERIS_TYPE":0,"CLASSIFICATION_TYPE":"U","NORAD_CAT_ID":43012,"ELEMENT_SET_NO":999,"REV_AT_EPOCH":44900,"BSTAR":6.3731469e-5,"MEAN_MOTION_DOT":2.71e-6,"MEAN_MOTION_DDOT":0},{"OBJECT_NAME":"NOAA 20 (JPSS-1)","OBJECT_ID":"2017-073A","EPOCH":"2026-04-25T20:12:12.227616","MEAN_MOTION":14.19547502,"ECCENTRICITY":0.00021078,"INCLINATION":98.7744,"RA_OF_ASC_NODE":55.7767,"ARG_OF_PERICENTER":73.3563,"MEAN_ANOMALY":286.7844,"EPHEMERIS_TYPE":0,"CLASSIFICATION_TYPE":"U","NORAD_CAT_ID":43013,"ELEMENT_SET_NO":999,"REV_AT_EPOCH":43704,"BSTAR":5.2738677e-5,"MEAN_MOTION_DOT":6.7e-7,"MEAN_MOTION_DDOT":0},{"OBJECT_NAME":"MAKERSAT 0","OBJECT_ID":"2017-073D","EPOCH":"2026-04-25T15:08:14.080992","MEAN_MOTION":15.29789926,"ECCENTRICITY":0.01141784,"INCLINATION":97.4705,"RA_OF_ASC_NODE":357.8114,"ARG_OF_PERICENTER":99.6465,"MEAN_ANOMALY":261.7695,"EPHEMERIS_TYPE":0,"CLASSIFICATION_TYPE":"U","NORAD_CAT_ID":43016,"ELEMENT_SET_NO":999,"REV_AT_EPOCH":45842,"BSTAR":0.00062655955,"MEAN_MOTION_DOT":0.00022036,"MEAN_MOTION_DDOT":0},{"OBJECT_NAME":"RADFXSAT (FOX-1B)","OBJECT_ID":"2017-073E","EPOCH":"2026-04-25T14:28:53.004000","MEAN_MOTION":15.11739469,"ECCENTRICITY":0.01540666,"INCLINATION":97.4781,"RA_OF_ASC_NODE":343.916,"ARG_OF_PERICENTER":149.577,"MEAN_ANOMALY":211.4514,"EPHEMERIS_TYPE":0,"CLASSIFICATION_TYPE":"U","NORAD_CAT_ID":43017,"ELEMENT_SET_NO":999,"REV_AT_EPOCH":45744,"BSTAR":0.00037833607,"MEAN_MOTION_DOT":8.54e-5,"MEAN_MOTION_DDOT":0},{"OBJECT_NAME":"JILIN-1 04","OBJECT_ID":"2017-074A","EPOCH":"2026-04-25T21:41:52.217376","MEAN_MOTION":15.41099071,"ECCENTRICITY":0.00044137,"INCLINATION":97.4798,"RA_OF_ASC_NODE":224.1954,"ARG_OF_PERICENTER":42.867,"MEAN_ANOMALY":317.292,"EPHEMERIS_TYPE":0,"CLASSIFICATION_TYPE":"U","NORAD_CAT_ID":43022,"ELEMENT_SET_NO":999,"REV_AT_EPOCH":46621,"BSTAR":0.00037498003,"MEAN_MOTION_DOT":0.00015442,"MEAN_MOTION_DDOT":0},{"OBJECT_NAME":"JILIN-1 05","OBJECT_ID":"2017-074B","EPOCH":"2026-04-25T22:01:39.131328","MEAN_MOTION":15.33075067,"ECCENTRICITY":0.00064889,"INCLINATION":97.4809,"RA_OF_ASC_NODE":221.4147,"ARG_OF_PERICENTER":64.2698,"MEAN_ANOMALY":295.9213,"EPHEMERIS_TYPE":0,"CLASSIFICATION_TYPE":"U","NORAD_CAT_ID":43023,"ELEMENT_SET_NO":999,"REV_AT_EPOCH":46599,"BSTAR":0.00023140977,"MEAN_MOTION_DOT":7.318e-5,"MEAN_MOTION_DDOT":0},{"OBJECT_NAME":"JILIN-1 06","OBJECT_ID":"2017-074C","EPOCH":"2026-04-25T21:17:34.984608","MEAN_MOTION":15.33099092,"ECCENTRICITY":0.00083884,"INCLINATION":97.4738,"RA_OF_ASC_NODE":218.4489,"ARG_OF_PERICENTER":71.6855,"MEAN_ANOMALY":288.5299,"EPHEMERIS_TYPE":0,"CLASSIFICATION_TYPE":"U","NORAD_CAT_ID":43024,"ELEMENT_SET_NO":999,"REV_AT_EPOCH":46582,"BSTAR":0.00025015895,"MEAN_MOTION_DOT":7.927e-5,"MEAN_MOTION_DDOT":0}]
